[
    {
        "Altitude(m)": 611967.183140394,
        "Argument of Periapsis(deg)": 0.0,
        "Eccentricity": 0.0,
        "Inclination(deg)": 60.0,
        "Latitude(deg)": 59.14017433248519,
        "Longitude(deg)": 16.091895415724025,
        "Mean Anomaly(deg)": 98.18179999999998,
        "RAAN(deg)": 10.0,
        "Satellite Name": "Test1 50",
        "Satellite Number": 50,
        "Semi-Major Axis(m)": 6980739.136638005,
        "Time(s)": 0
    },
    {
        "Altitude(m)": 611934.3836453838,
        "Argument of Periapsis(deg)": 0.00010418945913296404,
        "Eccentricity": 0.0,
        "Inclination(deg)": 60.0,
        "Latitude(deg)": 58.98653842193138,
        "Longitude(deg)": 17.215142576792413,
        "Mean Anomaly(deg)": 98.80190614546183,
        "RAAN(deg)": 9.999579950860259,
        "Satellite Name": "Test1 50",
        "Satellite Number": 50,
        "Semi-Major Axis(m)": 6980739.136638005,
        "Time(s)": 10
    }
]